     2              NAVIGATION DATA                         RINEX VERSION / TYPE
CCRINEXN V1.6.0 UX  CDDIS               12-NOV-16 15:33     PGM / RUN BY / DATE 
IGS BROADCAST EPHEMERIS FILE                                COMMENT             
    0.1211D-07 -0.7451D-08 -0.1192D-06  0.5960D-07          ION ALPHA           
    0.9830D+05 -0.8192D+05 -0.1966D+06  0.4588D+06          ION BETA            
    0.931322574615D-09 0.444089209850D-14    61440     1923 DELTA-UTC: A0,A1,T,W
    17                                                      LEAP SECONDS        
                                                            END OF HEADER       
32 16 11 11  7 59 44.0-0.193281099200D-03-0.168256519828D-10 0.000000000000D+00
    0.310000000000D+02 0.919375000000D+02 0.438803992233D-08 0.233059841236D+01
    0.491738319397D-05 0.613679178059D-03 0.942312180996D-05 0.515366773033D+04
    0.460784000000D+06-0.353902578354D-07-0.308612605756D+01-0.484287738800D-07
    0.959289203869D+00 0.193593750000D+03-0.252677031545D+01-0.804962101331D-08
    0.412160025262D-09 0.000000000000D+00 0.192200000000D+04 0.000000000000D+00
    0.200000000000D+01 0.000000000000D+00 0.465661287308D-09 0.310000000000D+02
    0.453600000000D+06 0.400000000000D+01 0.000000000000D+00 0.000000000000D+00
 1 16 11 11  8  0  0.0 0.401218421757D-04 0.125055521494D-11 0.000000000000D+00
    0.730000000000D+02-0.303125000000D+02 0.495127766916D-08-0.432453827838D+00
   -0.165030360222D-05 0.598048139363D-02 0.428780913353D-05 0.515369246101D+04
    0.460800000000D+06 0.204890966415D-07 0.111497597264D+01 0.689178705216D-07
    0.965358956310D+00 0.297093750000D+03 0.565852843642D+00-0.848606776450D-08
   -0.185722021782D-09 0.100000000000D+01 0.192200000000D+04 0.000000000000D+00
    0.200000000000D+01 0.000000000000D+00 0.512227416039D-08 0.730000000000D+02
    0.460590000000D+06 0.400000000000D+01 0.000000000000D+00 0.000000000000D+00
 2 16 11 11  8  0  0.0 0.527131836861D-03-0.557065504836D-11 0.000000000000D+00
    0.960000000000D+02-0.149375000000D+02 0.560059021382D-08 0.408428441255D-01
   -0.692903995514D-06 0.161181892036D-01 0.385381281376D-05 0.515366111946D+04
    0.460800000000D+06-0.128522515297D-06 0.106581514894D+01 0.253319740295D-06
    0.944230078767D+00 0.299375000000D+03-0.206908559070D+01-0.904466279650D-08
   -0.119647847185D-09 0.100000000000D+01 0.192200000000D+04 0.000000000000D+00
    0.400000000000D+01 0.000000000000D+00-0.200234353542D-07 0.960000000000D+02
    0.453600000000D+06 0.000000000000D+00 0.000000000000D+00 0.000000000000D+00
 3 16 11 11  8  0  0.0-0.976230949163D-04-0.204636307899D-11 0.000000000000D+00
    0.140000000000D+02-0.367500000000D+02 0.440089760076D-08-0.182358313762D+01
   -0.190176069737D-05 0.339389196597D-03 0.115036964416D-04 0.515358556938D+04
    0.460800000000D+06 0.130385160446D-07 0.215723089467D+01-0.428408384323D-07
    0.959338107757D+00 0.159750000000D+03 0.860069864585D+00-0.792318717541D-08
   -0.445732852277D-09 0.100000000000D+01 0.192200000000D+04 0.000000000000D+00
    0.200000000000D+01 0.000000000000D+00 0.186264514923D-08 0.140000000000D+02
    0.453618000000D+06 0.400000000000D+01 0.000000000000D+00 0.000000000000D+00
 4 16 11 11  8  0  0.0 0.153724104166D-04 0.295585778076D-11 0.000000000000D+00
    0.800000000000D+01 0.110125000000D+03 0.437196782429D-08 0.313590177353D+01
    0.561401247978D-05 0.836174772121D-02 0.860914587975D-05 0.515359580803D+04
    0.460800000000D+06 0.111758708954D-06-0.296671693905D+01 0.912696123123D-07
    0.966488700648D+00 0.212562500000D+03-0.971089400994D+00-0.799068998717D-08
    0.476091259683D-09 0.100000000000D+01 0.192200000000D+04 0.000000000000D+00
    0.200000000000D+01 0.630000000000D+02-0.419095158577D-08 0.800000000000D+01
    0.453600000000D+06 0.400000000000D+01 0.000000000000D+00 0.000000000000D+00
 5 16 11 11  8  0  0.0-0.788043253124D-04 0.238742359215D-11 0.000000000000D+00
    0.630000000000D+02-0.580937500000D+02 0.471948229967D-08 0.250329870919D+01
   -0.305846333504D-05 0.486959819682D-02 0.123176723719D-04 0.515363570785D+04
    0.460800000000D+06-0.149011611938D-07 0.214307945319D+01-0.651925802231D-07
    0.946342416903D+00 0.135125000000D+03 0.552235668615D+00-0.811069498586D-08
   -0.476091259683D-09 0.100000000000D+01 0.192200000000D+04 0.000000000000D+00
    0.200000000000D+01 0.000000000000D+00-0.107102096081D-07 0.630000000000D+02
    0.453600000000D+06 0.400000000000D+01 0.000000000000D+00 0.000000000000D+00
 6 16 11 11  8  0  0.0 0.271536409855D-03 0.500222085975D-11 0.000000000000D+00
    0.117000000000D+03-0.240000000000D+02 0.496342122958D-08-0.281976523511D-01
   -0.120513141155D-05 0.299278413877D-03 0.421702861786D-05 0.515355148888D+04
    0.460800000000D+06-0.745058059692D-08 0.110658022580D+01 0.409781932831D-07
    0.965167997224D+00 0.301437500000D+03-0.150082820567D+01-0.847320968944D-08
   -0.152863513514D-09 0.100000000000D+01 0.192200000000D+04 0.000000000000D+00
    0.113000000000D+02 0.000000000000D+00 0.419095158577D-08 0.117000000000D+03
    0.453600000000D+06 0.000000000000D+00 0.000000000000D+00 0.000000000000D+00
 7 16 11 11  8  0  0.0 0.411866232753D-03-0.329691829393D-11 0.000000000000D+00
    0.750000000000D+02-0.687500000000D+01 0.486555981295D-08-0.107864209366D+01
   -0.290572643280D-06 0.100462733535D-01 0.292249023914D-05 0.515361741257D+04
    0.460800000000D+06 0.184401869774D-06-0.200992141364D+01 0.186264514923D-08
    0.964384292991D+00 0.320250000000D+03-0.261539642647D+01-0.850749722855D-08
   -0.260725145963D-10 0.100000000000D+01 0.192200000000D+04 0.000000000000D+00
    0.200000000000D+01 0.000000000000D+00-0.111758708954D-07 0.750000000000D+02
    0.453600000000D+06 0.400000000000D+01 0.000000000000D+00 0.000000000000D+00
 8 16 11 11  8  0  0.0-0.385711900890D-04-0.136424205266D-11 0.000000000000D+00
    0.380000000000D+02 0.479062500000D+02 0.452983154281D-08 0.247205786686D+01
    0.264868140221D-05 0.194810284302D-02 0.918656587601D-05 0.515377936363D+04
    0.460800000000D+06 0.782310962677D-07 0.535249423973D-01 0.279396772385D-07
    0.965250385844D+00 0.202593750000D+03-0.998652846174D+00-0.807747931658D-08
    0.403588239642D-09 0.100000000000D+01 0.192200000000D+04 0.000000000000D+00
    0.200000000000D+01 0.000000000000D+00 0.512227416039D-08 0.380000000000D+02
    0.453600000000D+06 0.400000000000D+01 0.000000000000D+00 0.000000000000D+00
 9 16 11 11  8  0  0.0 0.242394860834D-03 0.727595761418D-11 0.000000000000D+00
    0.108000000000D+03 0.101937500000D+03 0.451590239118D-08 0.186239514277D+01
    0.531785190105D-05 0.688950531185D-03 0.950135290623D-05 0.515375385284D+04
    0.460800000000D+06 0.838190317154D-07-0.308834314502D+01 0.800937414169D-07
    0.954738447546D+00 0.192875000000D+03 0.181855166349D+01-0.814248202420D-08
    0.443232748137D-09 0.100000000000D+01 0.192200000000D+04 0.000000000000D+00
    0.280000000000D+01 0.000000000000D+00 0.139698386192D-08 0.108000000000D+03
    0.453600000000D+06 0.400000000000D+01 0.000000000000D+00 0.000000000000D+00
10 16 11 11  8  0  0.0-0.113547313958D-03-0.170530256582D-11 0.000000000000D+00
    0.230000000000D+02-0.508437500000D+02 0.434339520556D-08-0.247108768446D+01
   -0.262632966042D-05 0.188740761951D-02 0.113658607006D-04 0.515368019676D+04
    0.460800000000D+06-0.186264514923D-07 0.215336742897D+01 0.465661287308D-07
    0.959541469462D+00 0.160812500000D+03-0.293909543797D+01-0.788675708652D-08
   -0.336799743347D-09 0.000000000000D+00 0.192200000000D+04 0.000000000000D+00
    0.200000000000D+01 0.000000000000D+00 0.232830643654D-08 0.230000000000D+02
    0.453600000000D+06 0.400000000000D+01 0.000000000000D+00 0.000000000000D+00
11 16 11 11  8  0  0.0-0.670962035656D-03-0.170530256582D-11 0.000000000000D+00
    0.810000000000D+02 0.238437500000D+02 0.660241787435D-08-0.997000800582D+00
    0.149011611939D-05 0.167714330601D-01 0.406801700592D-05 0.515367841148D+04
    0.460800000000D+06-0.262632966042D-06 0.726136130279D+00 0.149011611938D-06
    0.898452725648D+00 0.269218750000D+03 0.159742304212D+01-0.948503794704D-08
    0.223580741607D-09 0.100000000000D+01 0.192200000000D+04 0.000000000000D+00
    0.400000000000D+01 0.000000000000D+00-0.121071934700D-07 0.810000000000D+02
    0.455880000000D+06 0.400000000000D+01 0.000000000000D+00 0.000000000000D+00
12 16 11 11  8  0  0.0 0.389489810914D-03 0.000000000000D+00 0.000000000000D+00
    0.850000000000D+02-0.755000000000D+02 0.378980071755D-08-0.166674365962D+01
   -0.387430191040D-05 0.607534509618D-02 0.114776194096D-04 0.515363693428D+04
    0.460800000000D+06 0.113621354103D-06-0.929595428124D+00-0.782310962677D-07
    0.989966648656D+00 0.173437500000D+03 0.780186364134D+00-0.766174771397D-08
   -0.202508435289D-09 0.000000000000D+00 0.192200000000D+04 0.000000000000D+00
    0.200000000000D+01 0.000000000000D+00-0.125728547573D-07 0.850000000000D+02
    0.453600000000D+06 0.400000000000D+01 0.000000000000D+00 0.000000000000D+00
13 16 11 11  8  0  0.0-0.542732886970D-04-0.204636307899D-11 0.000000000000D+00
    0.130000000000D+02 0.996250000000D+02 0.429303596504D-08-0.570316272533D-01
    0.509992241859D-05 0.402726558968D-02 0.886432826519D-05 0.515369276428D+04
    0.460800000000D+06-0.111758708954D-07-0.296515185955D+01-0.745058059692D-07
    0.970966975232D+00 0.213281250000D+03 0.190624442253D+01-0.812426697976D-08
    0.482877256633D-09 0.100000000000D+01 0.192200000000D+04 0.000000000000D+00
    0.200000000000D+01 0.000000000000D+00-0.111758708954D-07 0.130000000000D+02
    0.454920000000D+06 0.400000000000D+01 0.000000000000D+00 0.000000000000D+00
